{
  "norad_id": 32763,
  "name": "ICO G1",
  "history": [
    {
      "epoch": "2026-03-28T21:11:21.251040Z",
      "apogee_km": 35797.350528919356,
      "perigee_km": 35775.45869891341,
      "latitude_deg": 1.4151588288554107,
      "longitude_deg": -92.88043147128083,
      "height_km": 35780.88811192577,
      "semi_major_axis_km": 42164.541613916386,
      "eccentricity": 0.0002596,
      "inclination_deg": 5.5151,
      "raan_deg": 36.3086,
      "arg_perigee_deg": 311.0284,
      "mean_anomaly_deg": 63.938,
      "mean_motion_rev_day": 1.00272464
    },
    {
      "epoch": "2026-03-28T21:11:21.251904Z",
      "apogee_km": 35797.350950564774,
      "perigee_km": 35775.45827726799,
      "latitude_deg": 1.4151681940240175,
      "longitude_deg": -92.88033445022586,
      "height_km": 35780.88792444735,
      "semi_major_axis_km": 42164.541613916386,
      "eccentricity": 0.00025961,
      "inclination_deg": 5.5151,
      "raan_deg": 36.3086,
      "arg_perigee_deg": 311.0285,
      "mean_anomaly_deg": 63.938,
      "mean_motion_rev_day": 1.00272464
    },
    {
      "epoch": "2026-03-29T09:28:27.992352Z",
      "apogee_km": 35797.421020724396,
      "perigee_km": 35775.439788445045,
      "latitude_deg": -1.8484288576818866,
      "longitude_deg": -92.94865414710212,
      "height_km": 35790.250912099196,
      "semi_major_axis_km": 42164.567404584726,
      "eccentricity": 0.00026066,
      "inclination_deg": 5.516,
      "raan_deg": 36.3108,
      "arg_perigee_deg": 311.1913,
      "mean_anomaly_deg": 248.5565,
      "mean_motion_rev_day": 1.00272372
    },
    {
      "epoch": "2026-03-30T09:07:38.032320Z",
      "apogee_km": 35797.286359006204,
      "perigee_km": 35776.95764433632,
      "latitude_deg": -1.4607193456475251,
      "longitude_deg": -92.94112050741492,
      "height_km": 35792.41955823662,
      "semi_major_axis_km": 42165.259001671264,
      "eccentricity": 0.00024106,
      "inclination_deg": 5.5166,
      "raan_deg": 36.3104,
      "arg_perigee_deg": 318.6205,
      "mean_anomaly_deg": 236.879,
      "mean_motion_rev_day": 1.00269905
    },
    {
      "epoch": "2026-03-30T21:06:24.054048Z",
      "apogee_km": 35798.118099370804,
      "perigee_km": 35776.15842401452,
      "latitude_deg": 1.4824470262184142,
      "longitude_deg": -92.89724250088373,
      "height_km": 35781.279276823065,
      "semi_major_axis_km": 42165.27526169267,
      "eccentricity": 0.0002604,
      "inclination_deg": 5.5175,
      "raan_deg": 36.3118,
      "arg_perigee_deg": 313.5685,
      "mean_anomaly_deg": 62.1131,
      "mean_motion_rev_day": 1.00269847
    },
    {
      "epoch": "2026-03-31T15:34:51.276576Z",
      "apogee_km": 35796.663103618936,
      "perigee_km": 35775.80860480524,
      "latitude_deg": -5.037924474568921,
      "longitude_deg": -92.7654116288447,
      "height_km": 35776.915572168386,
      "semi_major_axis_km": 42164.37285421209,
      "eccentricity": 0.0002473,
      "inclination_deg": 5.5123,
      "raan_deg": 36.2967,
      "arg_perigee_deg": 316.5427,
      "mean_anomaly_deg": 337.0311,
      "mean_motion_rev_day": 1.00273066
    },
    {
      "epoch": "2026-03-31T21:03:59.914656Z",
      "apogee_km": 35796.59661804313,
      "perigee_km": 35775.99338998868,
      "latitude_deg": 1.5195200123914634,
      "longitude_deg": -92.89792506502451,
      "height_km": 35780.3467760361,
      "semi_major_axis_km": 42164.43200401591,
      "eccentricity": 0.00024432,
      "inclination_deg": 5.5127,
      "raan_deg": 36.2963,
      "arg_perigee_deg": 316.5333,
      "mean_anomaly_deg": 59.5524,
      "mean_motion_rev_day": 1.00272855
    },
    {
      "epoch": "2026-04-03T12:32:11.580000Z",
      "apogee_km": 35796.62731698906,
      "perigee_km": 35775.688528130515,
      "latitude_deg": -5.189545619266933,
      "longitude_deg": -92.95269576066632,
      "height_km": 35782.60618440679,
      "semi_major_axis_km": 42164.29492255979,
      "eccentricity": 0.0002483,
      "inclination_deg": 5.5138,
      "raan_deg": 36.2897,
      "arg_perigee_deg": 318.8027,
      "mean_anomaly_deg": 291.9563,
      "mean_motion_rev_day": 1.00273344
    },
    {
      "epoch": "2026-04-04T05:44:20.786208Z",
      "apogee_km": 35796.65257795697,
      "perigee_km": 35775.69354271218,
      "latitude_deg": 2.7853706216244416,
      "longitude_deg": -92.7303683083953,
      "height_km": 35795.72244176091,
      "semi_major_axis_km": 42164.310060334574,
      "eccentricity": 0.00024854,
      "inclination_deg": 5.515,
      "raan_deg": 36.2917,
      "arg_perigee_deg": 319.3841,
      "mean_anomaly_deg": 190.1213,
      "mean_motion_rev_day": 1.0027329
    },
    {
      "epoch": "2026-04-05T08:55:38.623584Z",
      "apogee_km": 35796.664129921446,
      "perigee_km": 35775.77337821954,
      "latitude_deg": -1.7412040438224827,
      "longitude_deg": -92.9403762464664,
      "height_km": 35791.53357809721,
      "semi_major_axis_km": 42164.3557540705,
      "eccentricity": 0.00024773,
      "inclination_deg": 5.517,
      "raan_deg": 36.2947,
      "arg_perigee_deg": 320.336,
      "mean_anomaly_deg": 238.1123,
      "mean_motion_rev_day": 1.00273127
    },
    {
      "epoch": "2026-04-05T20:51:36.053856Z",
      "apogee_km": 35796.66857245731,
      "perigee_km": 35775.81322786034,
      "latitude_deg": 1.6985847123544555,
      "longitude_deg": -92.89329431958022,
      "height_km": 35779.76674336099,
      "semi_major_axis_km": 42164.37790015883,
      "eccentricity": 0.00024731,
      "inclination_deg": 5.5179,
      "raan_deg": 36.2965,
      "arg_perigee_deg": 321.2262,
      "mean_anomaly_deg": 56.7014,
      "mean_motion_rev_day": 1.00273048
    }
  ]
}